start=new Date('2022-10-07T00:00:00.000Z').valueOf();
sats=[{"GP_ID":"214314923","EPHEMERIS_TYPE":"0","COUNTRY_CODE":"US","SITE":"AFETR","EPOCH":"2022-10-06T03:59:47.085216","CLASSIFICATION_TYPE":"U","FILE":"3593749","PERIOD":"95.438","SEMIMAJOR_AXIS":"6917.892","BSTAR":"-0.00004619300000","OBJECT_TYPE":"PAYLOAD","TLE_LINE1":"1 51856U 22022E   22279.16651719 -.00001023  00000-0 -46193-4 0  9996","OBJECT_NAME":"STARLINK-3568","PERIAPSIS":"538.721","MEAN_ANOMALY":"300.3765","ECCENTRICITY":"0.00014980","APOAPSIS":"540.793","ELEMENT_SET_NO":"999","CENTER_NAME":"EARTH","ARG_OF_PERICENTER":"59.7375","DECAY_DATE":null,"LAUNCH_DATE":"2022-03-03","OBJECT_ID":"2022-022E","MEAN_ELEMENT_THEORY":"SGP4","MEAN_MOTION_DDOT":"0.0000000000000","RA_OF_ASC_NODE":"232.9402","INCLINATION":"53.2158","NORAD_CAT_ID":"51856","TLE_LINE2":"2 51856  53.2158 232.9402 0001498  59.7375 300.3765 15.08836263 34262","MEAN_MOTION":"15.08836263","RCS_SIZE":"LARGE","TIME_SYSTEM":"UTC","REV_AT_EPOCH":"3426","MEAN_MOTION_DOT":"-0.00001023","REF_FRAME":"TEME"},{"ELEMENT_SET_NO":"999","CENTER_NAME":"EARTH","APOAPSIS":"540.672","DECAY_DATE":null,"ARG_OF_PERICENTER":"67.1714","LAUNCH_DATE":"2022-03-03","OBJECT_ID":"2022-022F","NORAD_CAT_ID":"51857","TLE_LINE2":"2 51857  53.2171 232.3861 0001307  67.1714 292.9416 15.08832515 34254","RA_OF_ASC_NODE":"232.3861","INCLINATION":"53.2171","MEAN_ELEMENT_THEORY":"SGP4","MEAN_MOTION_DDOT":"0.0000000000000","TIME_SYSTEM":"UTC","RCS_SIZE":"LARGE","MEAN_MOTION":"15.08832515","REF_FRAME":"TEME","MEAN_MOTION_DOT":"0.00002392","REV_AT_EPOCH":"3425","EPHEMERIS_TYPE":"0","GP_ID":"214330852","EPOCH":"2022-10-06T06:54:39.513312","SITE":"AFETR","COUNTRY_CODE":"US","CLASSIFICATION_TYPE":"U","FILE":"3594359","PERIOD":"95.438","TLE_LINE1":"1 51857U 22022F   22279.28795733  .00002392  00000-0  16837-3 0  9994","BSTAR":"0.00016837000000","OBJECT_TYPE":"PAYLOAD","SEMIMAJOR_AXIS":"6917.903","PERIAPSIS":"538.864","MEAN_ANOMALY":"292.9416","ECCENTRICITY":"0.00013070","OBJECT_NAME":"STARLINK-3571"},{"APOAPSIS":"540.793","ELEMENT_SET_NO":"999","CENTER_NAME":"EARTH","LAUNCH_DATE":"2022-03-03","DECAY_DATE":null,"ARG_OF_PERICENTER":"53.5753","INCLINATION":"53.2173","RA_OF_ASC_NODE":"232.3755","MEAN_MOTION_DDOT":"0.0000000000000","MEAN_ELEMENT_THEORY":"SGP4","NORAD_CAT_ID":"51858","TLE_LINE2":"2 51858  53.2173 232.3755 0001529  53.5753 306.5380 15.08843337 34253","OBJECT_ID":"2022-022G","REV_AT_EPOCH":"3425","REF_FRAME":"TEME","MEAN_MOTION_DOT":"0.00007972","RCS_SIZE":"LARGE","TIME_SYSTEM":"UTC","MEAN_MOTION":"15.08843337","SITE":"AFETR","COUNTRY_CODE":"US","EPOCH":"2022-10-06T06:59:57.198336","GP_ID":"214313421","EPHEMERIS_TYPE":"0","FILE":"3593749","CLASSIFICATION_TYPE":"U","PERIOD":"95.437","MEAN_ANOMALY":"306.5380","PERIAPSIS":"538.677","ECCENTRICITY":"0.00015290","OBJECT_NAME":"STARLINK-3563","BSTAR":"0.00051837000000","OBJECT_TYPE":"PAYLOAD","SEMIMAJOR_AXIS":"6917.870","TLE_LINE1":"1 51858U 22022G   22279.29163424  .00007972  00000-0  51837-3 0  9990"},{"TIME_SYSTEM":"UTC","RCS_SIZE":"LARGE","MEAN_MOTION":"15.08846067","REF_FRAME":"TEME","MEAN_MOTION_DOT":"0.00011939","REV_AT_EPOCH":"3443","OBJECT_ID":"2022-022H","NORAD_CAT_ID":"51859","TLE_LINE2":"2 51859  53.2153 221.1023 0001916  55.1812 304.9360 15.08846067 34433","RA_OF_ASC_NODE":"221.1023","INCLINATION":"53.2153","MEAN_MOTION_DDOT":"0.0000000000000","MEAN_ELEMENT_THEORY":"SGP4","DECAY_DATE":null,"ARG_OF_PERICENTER":"55.1812","LAUNCH_DATE":"2022-03-03","CENTER_NAME":"EARTH","ELEMENT_SET_NO":"999","APOAPSIS":"541.052","TLE_LINE1":"1 51859U 22022H   22279.57223995  .00011939  00000-0  76679-3 0  9991","BSTAR":"0.00076679000000","OBJECT_TYPE":"PAYLOAD","SEMIMAJOR_AXIS":"6917.862","PERIAPSIS":"538.401","ECCENTRICITY":"0.00019160","MEAN_ANOMALY":"304.9360","OBJECT_NAME":"STARLINK-3560","PERIOD":"95.437","CLASSIFICATION_TYPE":"U","FILE":"3594620","EPHEMERIS_TYPE":"0","GP_ID":"214359990","EPOCH":"2022-10-06T13:44:01.531680","SITE":"AFETR","COUNTRY_CODE":"US"},{"OBJECT_NAME":"STARLINK-3559","MEAN_ANOMALY":"295.9494","PERIAPSIS":"538.620","ECCENTRICITY":"0.00016140","SEMIMAJOR_AXIS":"6917.872","BSTAR":"0.00016980000000","OBJECT_TYPE":"PAYLOAD","TLE_LINE1":"1 51860U 22022J   22279.84454861  .00002416  00000-0  16980-3 0  9990","PERIOD":"95.437","FILE":"3594620","CLASSIFICATION_TYPE":"U","COUNTRY_CODE":"US","SITE":"AFETR","EPOCH":"2022-10-06T20:16:08.999904","GP_ID":"214360240","EPHEMERIS_TYPE":"0","REV_AT_EPOCH":"3443","MEAN_MOTION_DOT":"0.00002416","REF_FRAME":"TEME","MEAN_MOTION":"15.08842730","TIME_SYSTEM":"UTC","RCS_SIZE":"LARGE","MEAN_MOTION_DDOT":"0.0000000000000","MEAN_ELEMENT_THEORY":"SGP4","RA_OF_ASC_NODE":"219.8803","INCLINATION":"53.2182","NORAD_CAT_ID":"51860","TLE_LINE2":"2 51860  53.2182 219.8803 0001614  64.1665 295.9494 15.08842730 34438","OBJECT_ID":"2022-022J","LAUNCH_DATE":"2022-03-03","ARG_OF_PERICENTER":"64.1665","DECAY_DATE":null,"APOAPSIS":"540.854","ELEMENT_SET_NO":"999","CENTER_NAME":"EARTH"},{"MEAN_MOTION":"15.08845665","TIME_SYSTEM":"UTC","RCS_SIZE":"LARGE","REV_AT_EPOCH":"3430","MEAN_MOTION_DOT":"0.00001425","REF_FRAME":"TEME","OBJECT_ID":"2022-022K","MEAN_ELEMENT_THEORY":"SGP4","MEAN_MOTION_DDOT":"0.0000000000000","RA_OF_ASC_NODE":"221.1395","INCLINATION":"53.2176","TLE_LINE2":"2 51861  53.2176 221.1395 0001634  61.2023 298.9133 15.08845665 34301","NORAD_CAT_ID":"51861","ARG_OF_PERICENTER":"61.2023","DECAY_DATE":null,"LAUNCH_DATE":"2022-03-03","APOAPSIS":"540.858","CENTER_NAME":"EARTH","ELEMENT_SET_NO":"999","SEMIMAJOR_AXIS":"6917.863","BSTAR":"0.00010758000000","OBJECT_TYPE":"PAYLOAD","TLE_LINE1":"1 51861U 22022K   22279.56487014  .00001425  00000-0  10758-3 0  9992","OBJECT_NAME":"STARLINK-3562","PERIAPSIS":"538.598","MEAN_ANOMALY":"298.9133","ECCENTRICITY":"0.00016340","PERIOD":"95.437","CLASSIFICATION_TYPE":"U","FILE":"3594620","GP_ID":"214360492","EPHEMERIS_TYPE":"0","COUNTRY_CODE":"US","SITE":"AFETR","EPOCH":"2022-10-06T13:33:24.780096"},{"SEMIMAJOR_AXIS":"6917.935","OBJECT_TYPE":"PAYLOAD","BSTAR":"-0.00026999000000","TLE_LINE1":"1 51862U 22022L   22279.11225256 -.00004580  00000-0 -26999-3 0  9993","OBJECT_NAME":"STARLINK-3508","PERIAPSIS":"538.610","MEAN_ANOMALY":"310.3532","ECCENTRICITY":"0.00017190","PERIOD":"95.439","CLASSIFICATION_TYPE":"U","FILE":"3593749","GP_ID":"214313922","EPHEMERIS_TYPE":"0","COUNTRY_CODE":"US","SITE":"AFETR","EPOCH":"2022-10-06T02:41:38.621184","MEAN_MOTION":"15.08822279","RCS_SIZE":"LARGE","TIME_SYSTEM":"UTC","REV_AT_EPOCH":"3437","MEAN_MOTION_DOT":"-0.00004580","REF_FRAME":"TEME","OBJECT_ID":"2022-022L","MEAN_ELEMENT_THEORY":"SGP4","MEAN_MOTION_DDOT":"0.0000000000000","RA_OF_ASC_NODE":"223.1820","INCLINATION":"53.2194","NORAD_CAT_ID":"51862","TLE_LINE2":"2 51862  53.2194 223.1820 0001719  49.7611 310.3532 15.08822279 34370","ARG_OF_PERICENTER":"49.7611","DECAY_DATE":null,"LAUNCH_DATE":"2022-03-03","APOAPSIS":"540.989","ELEMENT_SET_NO":"999","CENTER_NAME":"EARTH"},{"REV_AT_EPOCH":"3438","MEAN_MOTION_DOT":"0.00000608","REF_FRAME":"TEME","MEAN_MOTION":"15.08842359","TIME_SYSTEM":"UTC","RCS_SIZE":"LARGE","MEAN_MOTION_DDOT":"0.0000000000000","MEAN_ELEMENT_THEORY":"SGP4","INCLINATION":"53.2173","RA_OF_ASC_NODE":"221.1869","NORAD_CAT_ID":"51863","TLE_LINE2":"2 51863  53.2173 221.1869 0001574  59.6843 300.4304 15.08842359 34384","OBJECT_ID":"2022-022M","LAUNCH_DATE":"2022-03-03","ARG_OF_PERICENTER":"59.6843","DECAY_DATE":null,"APOAPSIS":"540.827","CENTER_NAME":"EARTH","ELEMENT_SET_NO":"999","OBJECT_NAME":"STARLINK-3555","MEAN_ANOMALY":"300.4304","PERIAPSIS":"538.649","ECCENTRICITY":"0.00015740","SEMIMAJOR_AXIS":"6917.873","BSTAR":"0.00005629600000","OBJECT_TYPE":"PAYLOAD","TLE_LINE1":"1 51863U 22022M   22279.55751143  .00000608  00000-0  56296-4 0  9990","PERIOD":"95.437","FILE":"3594620","CLASSIFICATION_TYPE":"U","COUNTRY_CODE":"US","SITE":"AFETR","EPOCH":"2022-10-06T13:22:48.987552","GP_ID":"214359491","EPHEMERIS_TYPE":"0"},{"OBJECT_ID":"2022-022N","NORAD_CAT_ID":"51864","TLE_LINE2":"2 51864  53.2175 222.9159 0001726  59.0559 301.0602 15.08826416 34378","RA_OF_ASC_NODE":"222.9159","INCLINATION":"53.2175","MEAN_ELEMENT_THEORY":"SGP4","MEAN_MOTION_DDOT":"0.0000000000000","RCS_SIZE":"LARGE","TIME_SYSTEM":"UTC","MEAN_MOTION":"15.08826416","REF_FRAME":"TEME","MEAN_MOTION_DOT":"-0.00004288","REV_AT_EPOCH":"3437","ELEMENT_SET_NO":"999","CENTER_NAME":"EARTH","APOAPSIS":"540.981","DECAY_DATE":null,"ARG_OF_PERICENTER":"59.0559","LAUNCH_DATE":"2022-03-03","PERIOD":"95.438","TLE_LINE1":"1 51864U 22022N   22279.17111729 -.00004288  00000-0 -25159-3 0  9992","BSTAR":"-0.00025159000000","OBJECT_TYPE":"PAYLOAD","SEMIMAJOR_AXIS":"6917.922","PERIAPSIS":"538.593","MEAN_ANOMALY":"301.0602","ECCENTRICITY":"0.00017260","OBJECT_NAME":"STARLINK-3548","EPHEMERIS_TYPE":"0","GP_ID":"214314924","EPOCH":"2022-10-06T04:06:24.533856","SITE":"AFETR","COUNTRY_CODE":"US","CLASSIFICATION_TYPE":"U","FILE":"3593749"},{"CLASSIFICATION_TYPE":"U","FILE":"3594361","GP_ID":"214330886","EPHEMERIS_TYPE":"0","SITE":"AFETR","COUNTRY_CODE":"US","EPOCH":"2022-10-06T05:15:17.673120","BSTAR":"-0.00001440300000","OBJECT_TYPE":"PAYLOAD","SEMIMAJOR_AXIS":"6917.898","TLE_LINE1":"1 51865U 22022P   22279.21895455 -.00000517  00000-0 -14403-4 0  9995","MEAN_ANOMALY":"314.1560","PERIAPSIS":"538.528","ECCENTRICITY":"0.00017860","OBJECT_NAME":"STARLINK-3503","PERIOD":"95.438","DECAY_DATE":null,"ARG_OF_PERICENTER":"45.9579","LAUNCH_DATE":"2022-03-03","APOAPSIS":"540.999","CENTER_NAME":"EARTH","ELEMENT_SET_NO":"999","RCS_SIZE":"LARGE","TIME_SYSTEM":"UTC","MEAN_MOTION":"15.08834216","REV_AT_EPOCH":"3433","REF_FRAME":"TEME","MEAN_MOTION_DOT":"-0.00000517","OBJECT_ID":"2022-022P","RA_OF_ASC_NODE":"222.7108","INCLINATION":"53.2153","MEAN_ELEMENT_THEORY":"SGP4","MEAN_MOTION_DDOT":"0.0000000000000","NORAD_CAT_ID":"51865","TLE_LINE2":"2 51865  53.2153 222.7108 0001786  45.9579 314.1560 15.08834216 34330"}];
